STARLINK-32647          
1 62200U 24229J   26183.13805643  .00039251  00000+0  14277-2 0  9991
2 62200  42.9995 344.4688 0000998 275.5842  84.4896 15.27594727 88066
STARLINK-32667          
1 62201U 24229K   26183.16744031  .00004121  00000+0  15924-3 0  9997
2 62201  43.0012 343.8313 0000237 288.8827  71.1999 15.27564068 88076
STARLINK-32655          
1 62202U 24229L   26182.88804594  .00009930  00000+0  36978-3 0  9992
2 62202  43.0044 346.0300 0002559 273.6531  86.4028 15.27588111 88028
STARLINK-32665          
1 62203U 24229M   26182.15082564  .00030816  00000+0  11242-2 0  9991
2 62203  43.0011 349.9612 0001980 279.0434  81.0193 15.27592537 87918
STARLINK-32664          
1 62204U 24229N   26183.11514318  .00133965  00000+0  12393-2 0  9993
2 62204  42.9891 324.2428 0028798 329.6148  30.3048 15.65823867 88297
STARLINK-32660          
1 62205U 24229P   26183.10655634  .00007502  00000+0  28186-3 0  9995
2 62205  43.0006 330.3569 0001217 280.6561  79.4154 15.27578527 88227
STARLINK-32448          
1 62206U 24229Q   26182.84435918  .00030168  00000+0  11016-2 0  9994
2 62206  43.0036 345.7057 0001676 288.8204  71.2466 15.27571049 88022
STARLINK-32430          
1 62207U 24229R   26183.14366171  .00021847  00000+0  80131-3 0  9992
2 62207  43.0003 341.0547 0000656 285.9648  74.1132 15.27569777 88103
STARLINK-32675          
1 62208U 24229S   26182.73543495  .00033147  00000+0  12070-2 0  9995
2 62208  43.0001 346.6070 0001478 274.8463  85.2219 15.27623850 88000
STARLINK-32671          
1 62209U 24229T   26183.16373032  .00019885  00000+0  72996-3 0  9999
2 62209  43.0015 344.6541 0001627 274.4506  85.6160 15.27590255 88064
STARLINK-32670          
1 62210U 24229U   26182.85849136  .00025629  00000+0  93624-3 0  9993
2 62210  43.0029 345.8108 0001539 272.7184  87.3491 15.27629044 88029
STARLINK-32642          
1 62211U 24229V   26182.85206965  .00034757  00000+0  12647-2 0  9998
2 62211  43.0028 345.7620 0001602 272.8915  87.1753 15.27630353 88025
STARLINK-32668          
1 62212U 24229W   26183.14751617  .00013204  00000+0  48857-3 0  9998
2 62212  43.0052 341.0852 0000671 282.9780  77.0997 15.27575476 88107
STARLINK-32669          
1 62213U 24229X   26183.15345660  .00032543  00000+0  11851-2 0  9997
2 62213  43.0025 344.5784 0001469 285.2324  74.8366 15.27630614 88062
STARLINK-32666          
1 62214U 24229Y   26183.15987757  .00015930  00000+0  58718-3 0  9992
2 62214  43.0058 344.6274 0000876 281.4076  78.6677 15.27578273 88066
STARLINK-32662          
1 62215U 24229Z   26183.14573155  .00013773  00000+0  50868-3 0  9996
2 62215  43.0017 344.5195 0002858 278.8245  81.2283 15.27605652 88068
STARLINK-11394 [DTC]    
1 62218U 24231A   26182.92710738  .00148466  00000+0  12074-2 0  9991
2 62218  53.1564 258.1298 0001026  90.8486 269.2649 15.69731871 91358
STARLINK-11490 [DTC]    
1 62219U 24231B   26182.93201215  .00209032  00000+0  16839-2 0  9998
2 62219  53.1563 258.1624 0001255  41.8861 318.2253 15.69755704 91355
STARLINK-11466 [DTC]    
1 62220U 24231C   26182.94182169  .00191395  00000+0  15461-2 0  9999
2 62220  53.1565 258.2255 0000728  78.2165 281.8934 15.69747040 91350
STARLINK-11468 [DTC]    
1 62221U 24231D   26182.63328486  .00141509  00000+0  11506-2 0  9998
2 62221  53.1567 259.8598 0001373  54.0241 306.0904 15.69761712 91308
STARLINK-11488 [DTC]    
1 62222U 24231E   26182.93691877  .00162249  00000+0  13160-2 0  9991
2 62222  53.1564 258.1912 0001290  72.9362 287.1797 15.69746987 91350
STARLINK-11483 [DTC]    
1 62223U 24231F   26182.58423170  .00166974  00000+0  13533-2 0  9995
2 62223  53.1564 259.5350 0001592  38.8478 321.2654 15.69749371 91303
STARLINK-11492 [DTC]    
1 62224U 24231G   26182.50104537  .00174185  00000+0  14102-2 0  9997
2 62224  53.1565 260.4642 0001320  53.5776 306.5364 15.69750368 91283
STARLINK-11471 [DTC]    
1 62225U 24231H   26182.90749020  .00199034  00000+0  16054-2 0  9992
2 62225  53.1565 258.0081 0002199  76.3000 283.8263 15.69757051 91351
STARLINK-11475 [DTC]    
1 62226U 24231J   26182.91239068  .00192572  00000+0  15555-2 0  9995
2 62226  53.1559 258.0288 0001240  86.6999 273.4161 15.69744606 91355
STARLINK-11469 [DTC]    
1 62227U 24231K   26182.92220913  .00208020  00000+0  16784-2 0  9997
2 62227  53.1568 258.0911 0001431  72.1333 287.9841 15.69720543 91352
STARLINK-11476 [DTC]    
1 62228U 24231L   26182.51565670  .00154338  00000+0  12539-2 0  9991
2 62228  53.1569 259.8125 0001356  53.1120 307.0022 15.69735152 91301
STARLINK-11485 [DTC]    
1 62229U 24231M   26182.91729573  .00180654  00000+0  14603-2 0  9994
2 62229  53.1561 258.0608 0001158  67.9492 292.1649 15.69767545 91351
STARLINK-11481 [DTC]    
1 62230U 24231N   26182.82920668  .00148089  00000+0  12033-2 0  9995
2 62230  53.1571 258.9450 0002005  40.5879 319.5288 15.69753456 91333
STARLINK-32650          
1 62231U 24231P   26182.94990782  .00035354  00000+0  11443-2 0  9997
2 62231  53.1605  48.8004 0000915  92.0642 268.0464 15.31738068 89265
