OBJECT_NAME,OBJECT_ID,EPOCH,MEAN_MOTION,ECCENTRICITY,INCLINATION,RA_OF_ASC_NODE,ARG_OF_PERICENTER,MEAN_ANOMALY,EPHEMERIS_TYPE,CLASSIFICATION_TYPE,NORAD_CAT_ID,ELEMENT_SET_NO,REV_AT_EPOCH,BSTAR,MEAN_MOTION_DOT,MEAN_MOTION_DDOT
STARLINK-32647,2024-229J,2026-07-02T03:18:48.075552,15.27594727,.00009981,42.9995,344.4688,275.5842,84.4896,0,U,62200,999,8806,.14276824E-2,.39251E-3,0
STARLINK-32667,2024-229K,2026-07-02T04:01:06.842784,15.27564068,.00002373,43.0012,343.8313,288.8827,71.1999,0,U,62201,999,8807,.15924374E-3,.4121E-4,0
STARLINK-32655,2024-229L,2026-07-01T21:18:47.169216,15.27588111,.00025591,43.0044,346.0300,273.6531,86.4028,0,U,62202,999,8802,.36977675E-3,.993E-4,0
STARLINK-32665,2024-229M,2026-07-01T03:37:11.335296,15.27592537,.000198,43.0011,349.9612,279.0434,81.0193,0,U,62203,999,8791,.11242476E-2,.30816E-3,0
STARLINK-32664,2024-229N,2026-07-02T02:45:48.370752,15.65823867,.00287988,42.9891,324.2428,329.6148,30.3048,0,U,62204,999,8829,.12393433E-2,.133965E-2,0
STARLINK-32660,2024-229P,2026-07-02T02:33:26.467776,15.27578527,.00012176,43.0006,330.3569,280.6561,79.4154,0,U,62205,999,8822,.28186021E-3,.7502E-4,0
STARLINK-32448,2024-229Q,2026-07-01T20:15:52.633152,15.27571049,.00016765,43.0036,345.7057,288.8204,71.2466,0,U,62206,999,8802,.1101637E-2,.30168E-3,0
STARLINK-32430,2024-229R,2026-07-02T03:26:52.371744,15.27569777,.00006563,43.0003,341.0547,285.9648,74.1132,0,U,62207,999,8810,.80131357E-3,.21847E-3,0
STARLINK-32675,2024-229S,2026-07-01T17:39:01.579680,15.27623850,.00014789,43.0001,346.6070,274.8463,85.2219,0,U,62208,999,8800,.12070335E-2,.33147E-3,0
STARLINK-32671,2024-229T,2026-07-02T03:55:46.299648,15.27590255,.00016279,43.0015,344.6541,274.4506,85.6160,0,U,62209,999,8806,.72996025E-3,.19885E-3,0
STARLINK-32670,2024-229U,2026-07-01T20:36:13.653504,15.27629044,.00015393,43.0029,345.8108,272.7184,87.3491,0,U,62210,999,8802,.93624285E-3,.25629E-3,0
STARLINK-32642,2024-229V,2026-07-01T20:26:58.817760,15.27630353,.00016025,43.0028,345.7620,272.8915,87.1753,0,U,62211,999,8802,.12646665E-2,.34757E-3,0
STARLINK-32668,2024-229W,2026-07-02T03:32:25.397088,15.27575476,.00006714,43.0052,341.0852,282.9780,77.0997,0,U,62212,999,8810,.48857116E-3,.13204E-3,0
STARLINK-32669,2024-229X,2026-07-02T03:40:58.650240,15.27630614,.00014693,43.0025,344.5784,285.2324,74.8366,0,U,62213,999,8806,.11850811E-2,.32543E-3,0
STARLINK-32666,2024-229Y,2026-07-02T03:50:13.422048,15.27578273,.00008763,43.0058,344.6274,281.4076,78.6677,0,U,62214,999,8806,.5871754E-3,.1593E-3,0
STARLINK-32662,2024-229Z,2026-07-02T03:29:51.205920,15.27605652,.00028582,43.0017,344.5195,278.8245,81.2283,0,U,62215,999,8806,.50867613E-3,.13773E-3,0
STARLINK-11394 [DTC],2024-231A,2026-07-01T22:15:02.077632,15.69731871,.00010269,53.1564,258.1298,90.8486,269.2649,0,U,62218,999,9135,.12073996E-2,.148466E-2,0
STARLINK-11490 [DTC],2024-231B,2026-07-01T22:22:05.849760,15.69755704,.00012559,53.1563,258.1624,41.8861,318.2253,0,U,62219,999,9135,.16839144E-2,.209032E-2,0
STARLINK-11466 [DTC],2024-231C,2026-07-01T22:36:13.394016,15.69747040,.00007286,53.1565,258.2255,78.2165,281.8934,0,U,62220,999,9135,.15460839E-2,.191395E-2,0
STARLINK-11468 [DTC],2024-231D,2026-07-01T15:11:55.811904,15.69761712,.00013732,53.1567,259.8598,54.0241,306.0904,0,U,62221,999,9130,.11505952E-2,.141509E-2,0
STARLINK-11488 [DTC],2024-231E,2026-07-01T22:29:09.781728,15.69746987,.00012908,53.1564,258.1912,72.9362,287.1797,0,U,62222,999,9135,.13160237E-2,.162249E-2,0
STARLINK-11483 [DTC],2024-231F,2026-07-01T14:01:17.618880,15.69749371,.00015921,53.1564,259.5350,38.8478,321.2654,0,U,62223,999,9130,.13532869E-2,.166974E-2,0
STARLINK-11492 [DTC],2024-231G,2026-07-01T12:01:30.319968,15.69750368,.00013209,53.1565,260.4642,53.5776,306.5364,0,U,62224,999,9128,.14102468E-2,.174185E-2,0
STARLINK-11471 [DTC],2024-231H,2026-07-01T21:46:47.153280,15.69757051,.00021997,53.1565,258.0081,76.3000,283.8263,0,U,62225,999,9135,.16054188E-2,.199034E-2,0
STARLINK-11475 [DTC],2024-231J,2026-07-01T21:53:50.554752,15.69744606,.00012401,53.1559,258.0288,86.6999,273.4161,0,U,62226,999,9135,.15555039E-2,.192572E-2,0
STARLINK-11469 [DTC],2024-231K,2026-07-01T22:07:58.868832,15.69720543,.00014315,53.1568,258.0911,72.1333,287.9841,0,U,62227,999,9135,.16784299E-2,.20802E-2,0
STARLINK-11476 [DTC],2024-231L,2026-07-01T12:22:32.738880,15.69735152,.00013566,53.1569,259.8125,53.1120,307.0022,0,U,62228,999,9130,.12539035E-2,.154338E-2,0
STARLINK-11485 [DTC],2024-231M,2026-07-01T22:00:54.351072,15.69767545,.00011586,53.1561,258.0608,67.9492,292.1649,0,U,62229,999,9135,.14602554E-2,.180654E-2,0
STARLINK-11481 [DTC],2024-231N,2026-07-01T19:54:03.457152,15.69753456,.00020059,53.1571,258.9450,40.5879,319.5288,0,U,62230,999,9133,.12032899E-2,.148089E-2,0
STARLINK-32650,2024-231P,2026-07-01T22:47:52.035648,15.31738068,.00009156,53.1605,48.8004,92.0642,268.0464,0,U,62231,999,8926,.11442815E-2,.35354E-3,0
